*******************************************************************************
Ephemeris / WWW_USER Sat Feb 10 18:27:42 2018 Pasadena, USA      / Horizons    
*******************************************************************************
Target body name: Earth (399)                     {source: DE431mx}
Center body name: Sun (10)                        {source: DE431mx}
Center-site name: BODY CENTER
*******************************************************************************
Start time      : A.D. 2018-Feb-07 03:00:00.0000 TDB
Stop  time      : A.D. 2030-Jan-01 00:00:00.0000 TDB
Step-size       : 1440 minutes
*******************************************************************************
Center geodetic : 0.00000000,0.00000000,0.0000000 {E-lon(deg),Lat(deg),Alt(km)}
Center cylindric: 0.00000000,0.00000000,0.0000000 {E-lon(deg),Dxy(km),Dz(km)}
Center radii    : 696000.0 x 696000.0 x 696000.0 k{Equator, meridian, pole}    
Output units    : KM-S                                                         
Output type     : GEOMETRIC cartesian states
Output format   : 1 (position only)
Reference frame : ICRF/J2000.0                                                 
Coordinate systm: Ecliptic and Mean Equinox of Reference Epoch                 
*******************************************************************************
JDTDB
   X     Y     Z
*******************************************************************************
$$SOE
2458739.625000000 = A.D. 2019-Sep-13 03:00:00.0000 TDB [del_T=     69.182467 s]
 X = 1.481597433205686E+08 Y =-2.670450140357717E+07 Z = 1.214362499481067E+03
2458740.625000000 = A.D. 2019-Sep-14 03:00:00.0000 TDB [del_T=     69.182457 s]
 X = 1.485525237926077E+08 Y =-2.417854436617542E+07 Z = 1.143799086948857E+03
2458741.625000000 = A.D. 2019-Sep-15 03:00:00.0000 TDB [del_T=     69.182447 s]
 X = 1.489023556051547E+08 Y =-2.164559977356835E+07 Z = 1.055312997496687E+03
2458742.625000000 = A.D. 2019-Sep-16 03:00:00.0000 TDB [del_T=     69.182437 s]
 X = 1.492091065103059E+08 Y =-1.910635301577303E+07 Z = 9.475576377138495E+02
2458743.625000000 = A.D. 2019-Sep-17 03:00:00.0000 TDB [del_T=     69.182428 s]
 X = 1.494726477287497E+08 Y =-1.656149211381125E+07 Z = 8.199471614705399E+02
2458744.625000000 = A.D. 2019-Sep-18 03:00:00.0000 TDB [del_T=     69.182419 s]
 X = 1.496928539040526E+08 Y =-1.401170896777274E+07 Z = 6.726986741498113E+02
2458745.625000000 = A.D. 2019-Sep-19 03:00:00.0000 TDB [del_T=     69.182411 s]
 X = 1.498696031929488E+08 Y =-1.145770064935334E+07 Z = 5.068623440396041E+02
2458746.625000000 = A.D. 2019-Sep-20 03:00:00.0000 TDB [del_T=     69.182403 s]
 X = 1.500027774752791E+08 Y =-8.900170771260843E+06 Z = 3.243414828390814E+02
2458747.625000000 = A.D. 2019-Sep-21 03:00:00.0000 TDB [del_T=     69.182396 s]
 X = 1.500922627012289E+08 Y =-6.339831009370258E+06 Z = 1.279026964982040E+02
2458748.625000000 = A.D. 2019-Sep-22 03:00:00.0000 TDB [del_T=     69.182389 s]
 X = 1.501379494713766E+08 Y =-3.777402878719270E+06 Z =-7.882992870523594E+01
2458749.625000000 = A.D. 2019-Sep-23 03:00:00.0000 TDB [del_T=     69.182382 s]
 X = 1.501397340625006E+08 Y =-1.213619836851274E+06 Z =-2.914133109605173E+02
2458750.625000000 = A.D. 2019-Sep-24 03:00:00.0000 TDB [del_T=     69.182377 s]
 X = 1.500975202406642E+08 Y = 1.350770334443659E+06 Z =-5.046868578261347E+02
2458751.625000000 = A.D. 2019-Sep-25 03:00:00.0000 TDB [del_T=     69.182371 s]
 X = 1.500112222720426E+08 Y = 3.915003169036276E+06 Z =-7.129784415136091E+02
2458752.625000000 = A.D. 2019-Sep-26 03:00:00.0000 TDB [del_T=     69.182366 s]
 X = 1.498807694295679E+08 Y = 6.478295838195580E+06 Z =-9.104541273498908E+02
2458753.625000000 = A.D. 2019-Sep-27 03:00:00.0000 TDB [del_T=     69.182362 s]
 X = 1.497061118711357E+08 Y = 9.039847140321650E+06 Z =-1.091621211090591E+03
2458754.625000000 = A.D. 2019-Sep-28 03:00:00.0000 TDB [del_T=     69.182358 s]
 X = 1.494872270372879E+08 Y = 1.159884014469799E+07 Z =-1.251931240282953E+03
2458755.625000000 = A.D. 2019-Sep-29 03:00:00.0000 TDB [del_T=     69.182354 s]
 X = 1.492241249928395E+08 Y = 1.415444786258587E+07 Z =-1.388354444253258E+03
2458756.625000000 = A.D. 2019-Sep-30 03:00:00.0000 TDB [del_T=     69.182351 s]
 X = 1.489168509866126E+08 Y = 1.670584116361464E+07 Z =-1.499759966934100E+03
2458757.625000000 = A.D. 2019-Oct-01 03:00:00.0000 TDB [del_T=     69.182348 s]
 X = 1.485654842955626E+08 Y = 1.925219708310488E+07 Z =-1.586982422021218E+03
2458758.625000000 = A.D. 2019-Oct-02 03:00:00.0000 TDB [del_T=     69.182346 s]
 X = 1.481701338142012E+08 Y = 2.179270545508147E+07 Z =-1.652571458281018E+03
2458759.625000000 = A.D. 2019-Oct-03 03:00:00.0000 TDB [del_T=     69.182345 s]
 X = 1.477309319587045E+08 Y = 2.432657263151658E+07 Z =-1.700334107892588E+03
2458760.625000000 = A.D. 2019-Oct-04 03:00:00.0000 TDB [del_T=     69.182344 s]
 X = 1.472480286466508E+08 Y = 2.685302229053381E+07 Z =-1.734822257963941E+03
2458761.625000000 = A.D. 2019-Oct-05 03:00:00.0000 TDB [del_T=     69.182343 s]
 X = 1.467215865161708E+08 Y = 2.937129421359755E+07 Z =-1.760884375452995E+03
2458762.625000000 = A.D. 2019-Oct-06 03:00:00.0000 TDB [del_T=     69.182343 s]
 X = 1.461517777372196E+08 Y = 3.188064212484440E+07 Z =-1.783335021672770E+03
2458763.625000000 = A.D. 2019-Oct-07 03:00:00.0000 TDB [del_T=     69.182343 s]
 X = 1.455387821920719E+08 Y = 3.438033143088111E+07 Z =-1.806740635836497E+03
2458764.625000000 = A.D. 2019-Oct-08 03:00:00.0000 TDB [del_T=     69.182344 s]
 X = 1.448827865711588E+08 Y = 3.686963730646636E+07 Z =-1.835291888171807E+03
2458765.625000000 = A.D. 2019-Oct-09 03:00:00.0000 TDB [del_T=     69.182346 s]
 X = 1.441839839416326E+08 Y = 3.934784324886835E+07 Z =-1.872727130999789E+03
2458766.625000000 = A.D. 2019-Oct-10 03:00:00.0000 TDB [del_T=     69.182347 s]
 X = 1.434425734640116E+08 Y = 4.181424002932735E+07 Z =-1.922277621701360E+03
2458767.625000000 = A.D. 2019-Oct-11 03:00:00.0000 TDB [del_T=     69.182350 s]
 X = 1.426587600694656E+08 Y = 4.426812488300938E+07 Z =-1.986615259258077E+03
2458768.625000000 = A.D. 2019-Oct-12 03:00:00.0000 TDB [del_T=     69.182353 s]
 X = 1.418327540295323E+08 Y = 4.670880076150812E+07 Z =-2.067793552678078E+03
2458769.625000000 = A.D. 2019-Oct-13 03:00:00.0000 TDB [del_T=     69.182356 s]
 X = 1.409647704412824E+08 Y = 4.913557549602316E+07 Z =-2.167180944416672E+03
2458770.625000000 = A.D. 2019-Oct-14 03:00:00.0000 TDB [del_T=     69.182360 s]
 X = 1.400550287125089E+08 Y = 5.154776076775256E+07 Z =-2.285391919974238E+03
2458771.625000000 = A.D. 2019-Oct-15 03:00:00.0000 TDB [del_T=     69.182364 s]
 X = 1.391037521621017E+08 Y = 5.394467084252973E+07 Z =-2.422225180845708E+03
2458772.625000000 = A.D. 2019-Oct-16 03:00:00.0000 TDB [del_T=     69.182369 s]
 X = 1.381111678505055E+08 Y = 5.632562108621332E+07 Z =-2.576619274161756E+03
2458773.625000000 = A.D. 2019-Oct-17 03:00:00.0000 TDB [del_T=     69.182374 s]
 X = 1.370775067296636E+08 Y = 5.868992632139295E+07 Z =-2.746634684748948E+03
2458774.625000000 = A.D. 2019-Oct-18 03:00:00.0000 TDB [del_T=     69.182380 s]
 X = 1.360030041655270E+08 Y = 6.103689910370924E+07 Z =-2.929468553978950E+03
2458775.625000000 = A.D. 2019-Oct-19 03:00:00.0000 TDB [del_T=     69.182386 s]
 X = 1.348879008598073E+08 Y = 6.336584798732582E+07 Z =-3.121505703333765E+03
2458776.625000000 = A.D. 2019-Oct-20 03:00:00.0000 TDB [del_T=     69.182393 s]
 X = 1.337324442001671E+08 Y = 6.567607582911112E+07 Z =-3.318409445423633E+03
2458777.625000000 = A.D. 2019-Oct-21 03:00:00.0000 TDB [del_T=     69.182400 s]
 X = 1.325368901055613E+08 Y = 6.796687817916617E+07 Z =-3.515258814509958E+03
2458778.625000000 = A.D. 2019-Oct-22 03:00:00.0000 TDB [del_T=     69.182408 s]
 X = 1.313015054887934E+08 Y = 7.023754185610390E+07 Z =-3.706744445759803E+03
2458779.625000000 = A.D. 2019-Oct-23 03:00:00.0000 TDB [del_T=     69.182416 s]
 X = 1.300265714843992E+08 Y = 7.248734393248932E+07 Z =-3.887439660601318E+03
2458780.625000000 = A.D. 2019-Oct-24 03:00:00.0000 TDB [del_T=     69.182425 s]
 X = 1.287123875128329E+08 Y = 7.471555154556091E+07 Z =-4.052159670583904E+03
2458781.625000000 = A.D. 2019-Oct-25 03:00:00.0000 TDB [del_T=     69.182434 s]
 X = 1.273592759984325E+08 Y = 7.692142311801890E+07 Z =-4.196402383990586E+03
2458782.625000000 = A.D. 2019-Oct-26 03:00:00.0000 TDB [del_T=     69.182443 s]
 X = 1.259675871254667E+08 Y = 7.910421156023197E+07 Z =-4.316826056346297E+03
2458783.625000000 = A.D. 2019-Oct-27 03:00:00.0000 TDB [del_T=     69.182453 s]
 X = 1.245377025612036E+08 Y = 8.126316965340702E+07 Z =-4.411672841556370E+03
2458784.625000000 = A.D. 2019-Oct-28 03:00:00.0000 TDB [del_T=     69.182464 s]
 X = 1.230700369244229E+08 Y = 8.339755707245855E+07 Z =-4.481021692134440E+03
2458785.625000000 = A.D. 2019-Oct-29 03:00:00.0000 TDB [del_T=     69.182475 s]
 X = 1.215650362262094E+08 Y = 8.550664771346754E+07 Z =-4.526780133903027E+03
2458786.625000000 = A.D. 2019-Oct-30 03:00:00.0000 TDB [del_T=     69.182486 s]
 X = 1.200231734837340E+08 Y = 8.758973567154847E+07 Z =-4.552404620677233E+03
2458787.625000000 = A.D. 2019-Oct-31 03:00:00.0000 TDB [del_T=     69.182498 s]
 X = 1.184449426793092E+08 Y = 8.964613867105240E+07 Z =-4.562432190194726E+03
2458788.625000000 = A.D. 2019-Nov-01 03:00:00.0000 TDB [del_T=     69.182511 s]
 X = 1.168308526225875E+08 Y = 9.167519872346146E+07 Z =-4.561956435360014E+03
2458789.625000000 = A.D. 2019-Nov-02 03:00:00.0000 TDB [del_T=     69.182523 s]
 X = 1.151814219365550E+08 Y = 9.367628067587140E+07 Z =-4.556166211061180E+03
2458790.625000000 = A.D. 2019-Nov-03 03:00:00.0000 TDB [del_T=     69.182537 s]
 X = 1.134971756790397E+08 Y = 9.564876969143198E+07 Z =-4.550009692862630E+03
2458791.625000000 = A.D. 2019-Nov-04 03:00:00.0000 TDB [del_T=     69.182550 s]
 X = 1.117786434813319E+08 Y = 9.759206857885668E+07 Z =-4.547989022359252E+03
